[ {"name": "STARLINK-32138", "line1": "1 60255U 24131A   26186.82400425 -.00000472  00000+0 -34304-5 0  9990", "line2": "2 60255  53.1601 223.1360 0001218  95.3441 264.7699 15.31695805110111"}, {"name": "STARLINK-32212", "line1": "1 60256U 24131B   26187.09749834 -.00008697  00000+0 -28192-3 0  9994", "line2": "2 60256  53.1596 222.7162 0001422  43.5012 316.6101 15.30190808109841"}, {"name": "STARLINK-32166", "line1": "1 60257U 24131C   26186.84256231 -.00002715  00000+0 -79661-4 0  9994", "line2": "2 60257  53.1589 223.9598 0001101  75.7519 284.3604 15.30171720109800"}, {"name": "STARLINK-32200", "line1": "1 60258U 24131D   26187.09538655 -.00003502  00000+0 -10627-3 0  9997", "line2": "2 60258  53.1592 222.6926 0001271  86.1350 273.9796 15.30168374109844"}, {"name": "STARLINK-32207", "line1": "1 60259U 24131E   26187.09327601 -.00003214  00000+0 -96515-4 0  9996", "line2": "2 60259  53.1596 222.6911 0001043  89.5082 270.6039 15.30169922109843"}, {"name": "STARLINK-32125", "line1": "1 60260U 24131F   26187.10793154 -.00003195  00000+0 -95850-4 0  9999", "line2": "2 60260  53.1598 222.0656 0001110  80.0415 280.0711 15.30181486109850"}, {"name": "STARLINK-32160", "line1": "1 60261U 24131G   26187.09780564  .00097292  00000+0  31810-2 0  9992", "line2": "2 60261  53.1599 222.7028 0001852  65.1659 294.9535 15.30935946109899"}, {"name": "STARLINK-32163", "line1": "1 60262U 24131H   26187.12693861 -.00003085  00000+0 -87747-4 0  9991", "line2": "2 60262  53.1592 221.4687 0001166  88.2729 271.8406 15.31674237109864"}, {"name": "STARLINK-32148", "line1": "1 60263U 24131J   26187.09436600 -.00004281  00000+0 -12634-3 0  9995", "line2": "2 60263  53.1593 221.9756 0001003  92.4722 267.6394 15.31681732109900"}, {"name": "STARLINK-32121", "line1": "1 60264U 24131K   26186.33432630  .00005763  00000+0  19720-3 0  9998", "line2": "2 60264  53.1578 225.7664 0001170  94.0136 266.0999 15.31720365109782"}, {"name": "STARLINK-32120", "line1": "1 60265U 24131L   26186.59980755 -.00006553  00000+0 -21522-3 0  9996", "line2": "2 60265  53.1588 225.2865 0001205  80.5877 279.5260 15.29316691109817"}, {"name": "STARLINK-32205", "line1": "1 60266U 24131M   26187.11302539 -.00002372  00000+0 -64732-4 0  9990", "line2": "2 60266  53.1597 222.1053 0001204  94.8538 265.2601 15.31685140109850"}, {"name": "STARLINK-32158", "line1": "1 60267U 24131N   26187.12376381 -.00000269  00000+0  30362-5 0  9993", "line2": "2 60267  53.1588 222.1541 0000893 104.0029 256.1071 15.30164133109757"}, {"name": "STARLINK-32167", "line1": "1 60268U 24131P   26187.10898725 -.00002867  00000+0 -84763-4 0  9993", "line2": "2 60268  53.1596 222.0790 0001029  76.1533 283.9583 15.30178630109846"}, {"name": "STARLINK-32144", "line1": "1 60269U 24131Q   26187.07102080 -.00003546  00000+0 -10265-3 0  9992", "line2": "2 60269  53.1594 221.8278 0000665  75.9812 284.1263 15.31675885109905"}, {"name": "STARLINK-32211", "line1": "1 60270U 24131R   26186.82376519  .00044412  00000+0  13287-2 0  9997", "line2": "2 60270  53.1613 223.8524 0001044  76.6410 283.4709 15.34140093109806"}, {"name": "STARLINK-32164", "line1": "1 60271U 24131S   26186.32107733  .00001050  00000+0  47561-4 0  9998", "line2": "2 60271  53.1590 226.3890 0001059  72.9290 287.1827 15.30198580109628"}, {"name": "STARLINK-32128", "line1": "1 60272U 24131T   26187.12055384  .00004857  00000+0  17595-3 0  9993", "line2": "2 60272  53.1592 222.1376 0001181  86.7412 273.3724 15.30210131109854"}, {"name": "STARLINK-32206", "line1": "1 60273U 24131U   26186.83306247 -.00001753  00000+0 -47110-4 0  9999", "line2": "2 60273  53.1595 223.9063 0001143  87.1984 272.9148 15.30175367109808"}, {"name": "STARLINK-32155", "line1": "1 60274U 24131V   26186.52107741  .00004807  00000+0  16644-3 0  9992", "line2": "2 60274  53.1578 224.7969 0001065  85.1606 274.9517 15.31720781109669"}, {"name": "STARLINK-32152", "line1": "1 60275U 24131W   26187.11743060 -.00004270  00000+0 -13218-3 0  9999", "line2": "2 60275  53.1598 222.1174 0001405  74.4631 285.6524 15.30186408109757"}, {"name": "STARLINK-32154", "line1": "1 60276U 24131X   26187.11110123 -.00002925  00000+0 -86747-4 0  9991", "line2": "2 60276  53.1591 222.0750 0001060  81.6750 278.4371 15.30174323109853"}, {"name": "STARLINK-32135", "line1": "1 60277U 24131Y   26187.12797173 -.00001779  00000+0 -47986-4 0  9997", "line2": "2 60277  53.1595 222.1781 0001309  90.3250 269.7901 15.30187262109859"}, {"name": "STARLINK-32156", "line1": "1 60278U 24132A   26187.11851154 -.00003179  00000+0 -95307-4 0  9994", "line2": "2 60278  53.1595 222.2537 0001381  78.2061 281.9095 15.30183527110914"}, {"name": "STARLINK-32010", "line1": "1 60279U 24132B   26187.09403677 -.00003281  00000+0 -94099-4 0  9996", "line2": "2 60279  53.1594 222.1069 0000907  66.3993 293.7103 15.31674244109694"}, {"name": "STARLINK-32118", "line1": "1 60280U 24132C   26187.11216445  .00000750  00000+0  37487-4 0  9990", "line2": "2 60280  53.1593 222.2134 0001473  97.0858 263.0310 15.30179272109699"}, {"name": "STARLINK-32038", "line1": "1 60281U 24132D   26186.33047644  .00001981  00000+0  78983-4 0  9990", "line2": "2 60281  53.1598 225.8657 0001110  76.7988 283.3137 15.30208408109573"}, {"name": "STARLINK-32113", "line1": "1 60282U 24132E   26187.11533696 -.00002301  00000+0 -65632-4 0  9991", "line2": "2 60282  53.1596 222.2331 0001252  76.8848 283.2292 15.30178673109699"}, {"name": "STARLINK-32037", "line1": "1 60283U 24132F   26186.38559028  .00004973  00000+0  17180-3 0  9996", "line2": "2 60283  53.1577 225.4989 0000986  77.2199 282.8912 15.31718288109585"}]