OBJECT_NAME,OBJECT_ID,EPOCH,MEAN_MOTION,ECCENTRICITY,INCLINATION,RA_OF_ASC_NODE,ARG_OF_PERICENTER,MEAN_ANOMALY,EPHEMERIS_TYPE,CLASSIFICATION_TYPE,NORAD_CAT_ID,ELEMENT_SET_NO,REV_AT_EPOCH,BSTAR,MEAN_MOTION_DOT,MEAN_MOTION_DDOT
STARLINK-32138,2024-131A,2026-07-05T19:46:33.967200,15.31695805,.00012184,53.1601,223.1360,95.3441,264.7699,0,U,60255,999,11011,-.3430374E-5,-.472E-5,0
STARLINK-32212,2024-131B,2026-07-06T02:20:23.856576,15.30190808,.00014229,53.1596,222.7162,43.5012,316.6101,0,U,60256,999,10984,-.28191925E-3,-.8697E-4,0
STARLINK-32166,2024-131C,2026-07-05T20:13:17.383584,15.30171720,.00011011,53.1589,223.9598,75.7519,284.3604,0,U,60257,999,10980,-.79661015E-4,-.2715E-4,0
STARLINK-32200,2024-131D,2026-07-06T02:17:21.397920,15.30168374,.00012719,53.1592,222.6926,86.1350,273.9796,0,U,60258,999,10984,-.10626928E-3,-.3502E-4,0
STARLINK-32207,2024-131E,2026-07-06T02:14:19.047264,15.30169922,.0001043,53.1596,222.6911,89.5082,270.6039,0,U,60259,999,10984,-.96515281E-4,-.3214E-4,0
STARLINK-32125,2024-131F,2026-07-06T02:35:25.285056,15.30181486,.00011106,53.1598,222.0656,80.0415,280.0711,0,U,60260,999,10985,-.95850116E-4,-.3195E-4,0
STARLINK-32160,2024-131G,2026-07-06T02:20:50.407296,15.30935946,.00018521,53.1599,222.7028,65.1659,294.9535,0,U,60261,999,10989,.31809538E-2,.97292E-3,0
STARLINK-32163,2024-131H,2026-07-06T03:02:47.495904,15.31674237,.00011669,53.1592,221.4687,88.2729,271.8406,0,U,60262,999,10986,-.87746757E-4,-.3085E-4,0
STARLINK-32148,2024-131J,2026-07-06T02:15:53.222400,15.31681732,.00010036,53.1593,221.9756,92.4722,267.6394,0,U,60263,999,10990,-.12634328E-3,-.4281E-4,0
STARLINK-32121,2024-131K,2026-07-05T08:01:25.792320,15.31720365,.000117,53.1578,225.7664,94.0136,266.0999,0,U,60264,999,10978,.1972E-3,.5763E-4,0
STARLINK-32120,2024-131L,2026-07-05T14:23:43.372320,15.29316691,.00012055,53.1588,225.2865,80.5877,279.5260,0,U,60265,999,10981,-.21521725E-3,-.6553E-4,0
STARLINK-32205,2024-131M,2026-07-06T02:42:45.393696,15.31685140,.00012046,53.1597,222.1053,94.8538,265.2601,0,U,60266,999,10985,-.64731503E-4,-.2372E-4,0
STARLINK-32158,2024-131N,2026-07-06T02:58:13.193184,15.30164133,.00008936,53.1588,222.1541,104.0029,256.1071,0,U,60267,999,10975,.3036247E-5,-.269E-5,0
STARLINK-32167,2024-131P,2026-07-06T02:36:56.498400,15.30178630,.00010297,53.1596,222.0790,76.1533,283.9583,0,U,60268,999,10984,-.84763108E-4,-.2867E-4,0
STARLINK-32144,2024-131Q,2026-07-06T01:42:16.197120,15.31675885,.00006652,53.1594,221.8278,75.9812,284.1263,0,U,60269,999,10990,-.10265207E-3,-.3546E-4,0
STARLINK-32211,2024-131R,2026-07-05T19:46:13.312416,15.34140093,.00010447,53.1613,223.8524,76.6410,283.4709,0,U,60270,999,10980,.13287125E-2,.44412E-3,0
STARLINK-32164,2024-131S,2026-07-05T07:42:21.081312,15.30198580,.0001059,53.1590,226.3890,72.9290,287.1827,0,U,60271,999,10962,.47561E-4,.105E-4,0
STARLINK-32128,2024-131T,2026-07-06T02:53:35.851776,15.30210131,.00011813,53.1592,222.1376,86.7412,273.3724,0,U,60272,999,10985,.17594832E-3,.4857E-4,0
STARLINK-32206,2024-131U,2026-07-05T19:59:36.597408,15.30175367,.00011436,53.1595,223.9063,87.1984,272.9148,0,U,60273,999,10980,-.47109612E-4,-.1753E-4,0
STARLINK-32155,2024-131V,2026-07-05T12:30:21.088224,15.31720781,.0001065,53.1578,224.7969,85.1606,274.9517,0,U,60274,999,10966,.16644E-3,.4807E-4,0
STARLINK-32152,2024-131W,2026-07-06T02:49:06.003840,15.30186408,.00014051,53.1598,222.1174,74.4631,285.6524,0,U,60275,999,10975,-.13217593E-3,-.427E-4,0
STARLINK-32154,2024-131X,2026-07-06T02:39:59.146272,15.30174323,.00010607,53.1591,222.0750,81.6750,278.4371,0,U,60276,999,10985,-.86747286E-4,-.2925E-4,0
STARLINK-32135,2024-131Y,2026-07-06T03:04:16.757472,15.30187262,.00013094,53.1595,222.1781,90.3250,269.7901,0,U,60277,999,10985,-.47985804E-4,-.1779E-4,0
STARLINK-32156,2024-132A,2026-07-06T02:50:39.397056,15.30183527,.00013817,53.1595,222.2537,78.2061,281.9095,0,U,60278,999,11091,-.95306953E-4,-.3179E-4,0
STARLINK-32010,2024-132B,2026-07-06T02:15:24.776928,15.31674244,.00009071,53.1594,222.1069,66.3993,293.7103,0,U,60279,999,10969,-.94098607E-4,-.3281E-4,0
STARLINK-32118,2024-132C,2026-07-06T02:41:31.008480,15.30179272,.00014738,53.1593,222.2134,97.0858,263.0310,0,U,60280,999,10969,.37487253E-4,.75E-5,0
STARLINK-32038,2024-132D,2026-07-05T07:55:53.164416,15.30208408,.000111,53.1598,225.8657,76.7988,283.3137,0,U,60281,999,10957,.78983E-4,.1981E-4,0
STARLINK-32113,2024-132E,2026-07-06T02:46:05.113344,15.30178673,.00012521,53.1596,222.2331,76.8848,283.2292,0,U,60282,999,10969,-.65632288E-4,-.2301E-4,0
STARLINK-32037,2024-132F,2026-07-05T09:15:15.000192,15.31718288,.00009864,53.1577,225.4989,77.2199,282.8912,0,U,60283,999,10958,.17179579E-3,.4973E-4,0
